OBJECT B                
1 51825U 22019B   25256.96703823  .00021099  00000+0  45601-3 0  9992
2 51825  97.3774 334.7853 0009907  68.0951 292.1350 15.44477924196754
